IRIDIUM 126             
1 42809U 17039G   25186.46887715  .00000030  00000+0  35244-5 0  9996
2 42809  86.3994 138.5899 0002481  82.7164 277.4313 14.34217919420251
IRIDIUM 124             
1 42810U 17039H   25186.74485369  .00000277  00000+0  76449-4 0  9992
2 42810  86.4473  75.2091 0002015  81.8033 278.3397 14.43278402425144
IRIDIUM 128             
1 42811U 17039J   25186.45961417  .00000110  00000+0  32353-4 0  9996
2 42811  86.3997 170.0661 0001981  82.9992 277.1429 14.34218134420288
IRIDIUM 121             
1 42812U 17039K   25186.41813569  .00000007  00000+0 -46998-5 0  9994
2 42812  86.3999 138.6366 0002054  85.9716 274.1715 14.34217641420122
IRIDIUM 133             
1 42955U 17061A   25186.90993848  .00000104  00000+0  30057-4 0  9995
2 42955  86.4000 169.9872 0002289  85.5385 274.6072 14.34218396405145
IRIDIUM 100             
1 42956U 17061B   25186.48498222  .00000212  00000+0  68711-4 0  9993
2 42956  86.3997 170.0914 0002305  82.3366 277.8091 14.34219641405086
IRIDIUM 122             
1 42957U 17061C   25186.87188267  .00000224  00000+0  72937-4 0  9990
2 42957  86.3997 169.9292 0002352  85.2581 274.8883 14.34218817405143
IRIDIUM 129             
1 42958U 17061D   25186.89725449  .00000218  00000+0  70704-4 0  9995
2 42958  86.3999 169.9818 0002639  93.2038 266.9460 14.34218384405168
